#cP2024  2 24  0  0  0.00000000     577 d+D   IGS20 EXT AIUB
## 2302 518400.00000000   300.00000000 60364 0.0000000000000
+   78   G01G02G03G04G05G06G07G08G09G10G11G12G13G14G15G16G17
+        G18G19G20G21G22G23G24G25G26G27G28G29G30G31G32R01R02
+        R03R04R05R07R08R09R11R12R13R14R15R16R17R18R19R20R21
+        R22R24E02E03E04E05E07E08E09E10E11E12E13E14E15E18E19
+        E21E24E25E26E27E30E31E33E34E36  0  0  0  0  0  0  0
++         6  8  6  6  7  7  7  6  6  5  7  7  7  5  7  7  7
++         7  8  7  8  7  6  7  6  6  6  6  7  6  7  5  9  7
++         8  8  7  8  7  6  6  7  7  7  7  8  8  6  8  9  7
++         7  7  6  7  7  7  6  7  7  7  7  6  7  7  6  7  7
++         6  6  6  7  6  6  6  7  6  6  0  0  0  0  0  0  0
%c M  cc GPS ccc cccc cccc cccc cccc ccccc ccccc ccccc ccccc
%c cc cc ccc ccc cccc cccc cccc cccc ccccc ccccc ccccc ccccc
%f  1.2500000  1.025000000  0.00000000000  0.000000000000000
%f  0.0000000  0.000000000  0.00000000000  0.000000000000000
%i    0    0    0    0      0      0      0      0         0
%i    0    0    0    0      0      0      0      0         0
/* Center for Orbit Determination in Europe (CODE)          
/* Ultra-rapid GRE orbits starting year-day 24055 00 hour   
/* Observed/predicted: 24/24 hours (data used up to 055X)   
/* PCV:IGS20      OL/AL:FES2014b NONE     YN ORB:CoN CLK:BRD
*  2024  2 24  6 10  0.00000000
PG01 -11777.818908  23575.648806  -1506.970611    170.863325
PG02 -14897.389182  20266.146533   8601.692425   -480.585376
PG03 -16637.282152  12000.769338 -16948.302854    212.726935
PG04  -7318.863998  15357.645391 -20344.583570    299.334997
PG05  25170.260417  -6271.483129   5752.058160   -162.971559
PG06  10817.916682  10249.965095 -21904.100631    394.723341
PG07  -2619.699373  23551.512478  11988.282586    -69.305567
PG08 -13536.693225   7273.141964  21579.475543      5.635577
PG09   4784.401530  22936.068199 -12537.368465    102.609188
PG10 -16852.204041 -11060.785705  17668.054305      1.173466
PG11  17170.413511  -1835.184501 -20142.678825   -586.145610
PG12  17868.269278 -11040.456215 -16504.562512   -481.011201
PG13  16667.478399   3160.052166  20292.132945    628.357689
PG14  12890.979676  13479.688896  19002.640557    333.875764
PG15  12762.630058  -8972.351321  21013.919928    130.930043
PG16 -26786.916118   -831.590841    473.445294   -355.789444
PG17  12464.304628  23356.799598    613.581391    715.981419
PG18   2758.141365 -23088.166330  12677.432843   -562.284328
PG19  16524.819026  18974.234630  -9247.559668    444.998445
PG20  25428.703621   -322.649493  -7311.176953    386.335999
PG21 -16433.972729  15822.009406  13190.391368    133.797639
PG22  19272.814052  11155.947787  14679.636287     26.181848
PG23  -3688.527078 -14565.012890  21937.184431    162.862098
PG24  15161.411254 -19297.683977   9204.697316   -436.692320
PG25   6413.022426 -15387.441026 -20962.571295    489.509881
PG26 -24116.030367  -4980.537700 -10560.704751    186.868282
PG27 -18663.840495  -6089.374439  17809.991966     -6.689737
PG28  -9922.235598 -13057.791288 -20912.399531   -141.636862
PG29  -1426.660207 -22616.942382 -13818.927902   -606.324836
PG30   6134.046869  17912.594146  18651.860370   -428.484080
PG31 -15672.724882  -3061.859714 -21483.415671   -227.863968
PG32 -15878.766208 -21267.123845  -2446.418208   -613.189986
PR01   9773.588858  -6436.003843  22673.094039     77.970825
PR02  -6520.594408 -15726.079203  19072.440042    -22.526850
PR03 -19196.438119 -16246.189920   4504.121632     95.115818
PR04 -20859.947297  -8145.578759 -12193.493398    224.773089
PR05 -11485.466997   4420.856445 -22330.030008    127.394109
PR07  19560.543051  15948.073333  -3472.337641     76.506350
PR08  20878.519435   7671.251621  12520.728885    -74.507373
PR09  -6086.299068  14245.271798  20253.824856    171.726188
PR11  21908.439241  -3801.303889  12518.958129     33.328868
PR12  20810.077383 -13175.949221  -6584.849343     37.077707
PR13   8812.033401 -14427.400156 -19119.471178    -44.663330
PR14 -11052.851973  -6601.528857 -22012.730829     26.091933
PR15 -22480.889705   4513.808817 -11160.000840     81.927286
PR16 -20877.178907  13175.819759   6355.905107     23.510307
PR17  -6193.923395 -17615.592277  17370.800500     63.769109
PR18 -10427.686716  -1133.500350  23268.156805    128.945276
PR19 -10312.092685  14401.825624  18355.205156   -266.986743
PR20  -3391.370394  25249.356721   -579.734117   -108.754073
PR21   6063.868451  17519.542976 -17527.838338    -79.435925
PR22  10943.093304    194.398216 -23013.696053    109.621982
PR24   2035.599727 -25395.410669   1202.693562    -45.180110
PE02  27903.070089  -5968.504731  -7845.740865    105.951282
PE03  16971.532980  -4246.994699  23877.898325    -95.897803
PE04  -2816.349737  21827.091719 -19784.786910   -334.570045
PE05  20986.947204  15517.849923  13968.582243   4722.998110
PE07 -12484.703720 -26441.165586   4581.139131   -105.417197
PE08   3318.924902 -21308.186055  20274.393078   -228.767877
PE09  12457.215390  26444.093528  -4696.737824   -347.278693
PE10  -6424.477302  26729.227064 -10971.902289   -604.341303
PE11   1929.907611  22430.299528 -19211.691498   3226.611900
PE12 -12945.621485  26527.574260  -2014.825035   -919.750087
PE13  -1347.611764 -22831.936695  18805.548918    -20.285775
PE14 -17544.291967  -4602.649239  15430.531059 999999.999999
PE15  13251.937667 -26436.248541   1477.660333    -87.559907
PE18  23823.499236   9979.324086 -19167.628189 999999.999999
PE19 -17906.465034   1770.723486 -23493.670063   -555.264331
PE21 -27066.327835  -6395.340528 -10151.188873   -580.616264
PE24   9873.538192  15767.369840  22994.864981   -615.481906
PE25  26867.181737   6632.743188  10488.358339      1.298955
PE26 -15394.795753  -5369.513097  24713.248729    377.815151
PE27 -10376.694759 -15603.078097 -22922.872809   -282.530534
PE30  12505.344476 -15471.078529 -21930.923788    -29.004010
PE31 -12255.877122  15507.513211  22034.075483    -16.721085
PE33 -19899.109112  13975.036011  16884.056165      8.063939
PE34  19851.479547 -14525.185164 -16466.027726    -96.371064
PE36  14927.954659   5930.184013 -24856.991466   -190.269780
EOF
